[{"OBJECT_NAME":"STARLINK-3804","OBJECT_ID":"2022-041K","EPOCH":"2026-03-09T19:38:51.368640","MEAN_MOTION":15.08842954,"ECCENTRICITY":0.00014333,"INCLINATION":53.2186,"RA_OF_ASC_NODE":108.5683,"ARG_OF_PERICENTER":85.6934,"MEAN_ANOMALY":274.4222,"EPHEMERIS_TYPE":0,"CLASSIFICATION_TYPE":"U","NORAD_CAT_ID":52270,"ELEMENT_SET_NO":999,"REV_AT_EPOCH":21438,"BSTAR":-8.0667226e-5,"MEAN_MOTION_DOT":-1.572e-5,"MEAN_MOTION_DDOT":0},{"OBJECT_NAME":"ZK-1A R\/B","OBJECT_ID":"2025-256C","EPOCH":"2026-03-09T22:50:51.933408","MEAN_MOTION":15.05195406,"ECCENTRICITY":0.02187008,"INCLINATION":98.3035,"RA_OF_ASC_NODE":148.2706,"ARG_OF_PERICENTER":314.6999,"MEAN_ANOMALY":43.659,"EPHEMERIS_TYPE":0,"CLASSIFICATION_TYPE":"U","NORAD_CAT_ID":66411,"ELEMENT_SET_NO":999,"REV_AT_EPOCH":1815,"BSTAR":0.00055908382,"MEAN_MOTION_DOT":0.00013638,"MEAN_MOTION_DDOT":0}]
